ID,Address,Suburb,Price,Type,Date,Rooms,Bathroom,Car,LandSize,Age,Latitude,Longitude,train_station_id,distance_to_train_station,travel_min_to_CBD,over_priced?,crime_A_average,crime_B_average,crime_C_average,closest_primary_school,distance_to_closest_primary,primary_school_ranking,closest_secondary_school,distance_to_closestsecondary,secondary_school_ranking
ID309495818,408 Moreland Rd,BRUNSWICK WEST,1200000.0,h,3/06/2017,3,1.0,1.0,473.0,129.0,-37.7535,144.94643,19966.0,1359.2,20.25,True,941.333,5813.0,575.667,Brunswick North West Primary School,435.8,456,Antonine College,1408.1999999999998,482
ID222254172,2 Celia St,GLEN IRIS,2250000.0,h,10/09/2016,6,3.0,2.0,650.0,79.0,-37.8534,145.0785,19849.0,270.3,29.0,False,1923.667,8979.333,620.333,Hartwell Primary School,793.4,78,Siena College Ltd,2226.2,not ranked
ID123114894,2 Sanicki Ct,BENTLEIGH EAST,670000.0,t,27/11/2016,3,1.0,2.0,233.0,59.0,-37.9376,145.0784,19872.0,3425.6,39.15,False,925.667,4701.333,308.667,East Bentleigh Primary School,860.0,not ranked,St James' College,1384.2,not ranked
ID514744885,17/16 Mawbey St,KENSINGTON,392000.0,u,17/06/2017,1,1.0,1.0,0.0,18.0,-37.78993,144.92306000000005,20040.0,595.8,11.27,True,288.0,712.0,75.667,Kensington Primary School,503.6,116,Kensington Community High School,315.7,not ranked
ID732322983,12b Coates St,BENTLEIGH,1435000.0,t,6/08/2016,4,3.0,2.0,291.0,7.0,-37.9278,145.0337,19938.0,333.5,35.69,False,925.667,4701.333,308.667,St Paul's School,878.4,211,Our Lady of the Sacred Heart College,594.9,not ranked
ID506385347,6/5 Seaver Gr,RESERVOIR,340000.0,u,24/09/2016,2,1.0,1.0,151.0,44.0,-37.7126,144.99,20010.0,1570.8,33.61,False,824.667,1890.333,159.333,Reservoir West Primary School,1061.6000000000001,not ranked,Darul Ulum College of Victoria,1811.7,261
ID763813358,480 Whitehorse Rd,SURREY HILLS,1700000.0,h,4/06/2016,3,1.0,1.0,763.0,89.0,-37.8148,145.0965,19896.0,946.5,29.1,False,2403.667,5212.333,586.667,Chatham Primary School,534.6999999999999,310,Fintona Girls' School,1422.9,not ranked
ID981042368,9/2 Alfriston St,ELWOOD,369000.0,u,18/03/2017,1,1.0,1.0,1547.0,49.0,-37.8749,144.9903,19955.0,448.0,21.33,False,1666.0,9333.667,523.0,St Kilda Primary School,532.6999999999999,169,Yesodei HaTorah College,626.6,38
ID615699443,3/26 Ross St,ELSTERNWICK,800000.0,h,10/12/2016,3,2.0,2.0,331.0,9.0,-37.8847,144.9992,19954.0,149.3,23.33,False,1566.667,8895.333,491.0,Sholem Aleichem College,320.90000000000003,34,Adass Israel School,796.2,534
ID804445479,1c Mary St,PRESTON,770000.0,h,18/06/2016,2,2.0,1.0,76.0,6.0,-37.7443,145.0015,20013.0,183.7,27.73,False,659.0,5219.333,338.333,Sacred Heart School,207.5,66,St John's College Preston,408.0,not ranked
ID595300444,10/24 Eldridge St,FOOTSCRAY,316000.0,u,27/06/2016,2,1.0,1.0,0.0,59.0,-37.789,144.8932,20024.0,1511.0,11.95,False,1923.667,8979.333,620.333,Footscray North Primary School,875.8000000000001,235,Footscray City College,241.4,166
ID819257409,5 Koorang La,RICHMOND,1100000.0,h,18/06/2016,3,2.0,1.0,66.0,6.0,-37.8181,145.007,19906.0,1054.2,12.51,False,824.667,1890.333,159.333,Trinity Catholic School,273.1,not ranked,Richmond High School,376.90000000000003,not ranked
ID340122427,196 Melville Rd,BRUNSWICK WEST,816000.0,h,28/08/2016,2,2.0,1.0,343.0,89.0,-37.7552,144.9458,19966.0,1412.5,20.25,False,958.667,5673.0,628.0,Brunswick North West Primary School,256.79999999999995,456,Antonine College,1582.5,482
ID506311924,27 Higinbotham St,COBURG,947000.0,h,7/11/2016,3,1.0,1.0,372.0,99.0,-37.735,144.9581,19964.0,448.6,24.25,False,1071.333,5783.667,419.667,Coburg North Primary School,565.1,270,Australian International Academy of Education,721.7,not ranked
ID820865577,29 Hope St,PRESTON,1050000.0,h,24/09/2016,3,2.0,1.0,453.0,71.0,-37.7388,144.9844,20012.0,1419.3,29.03,False,659.0,5219.333,338.333,St Raphael's School,893.3,349,Coburg High School,1042.8,79
ID534751702,11 Church St,WEST FOOTSCRAY,1100500.0,h,19/08/2017,3,2.0,2.0,427.0,83.0,-37.79105,144.87913999999995,20023.0,1315.4,13.21,False,298.0,735.0,154.0,Footscray North Primary School,523.3,235,Footscray City College,1308.4,166
ID170690727,11 Turfan Cl,KEILOR DOWNS,700000.0,h,26/08/2017,4,2.0,2.0,726.0,39.0,-37.72649000000001,144.80992,20001.0,1458.2,30.48,False,2837.0,9343.667,1212.667,St Albans North Primary School,909.5,not ranked,Keilor Downs Secondary College,1226.8,not ranked
ID233754768,1/19 Robe St,ST KILDA,586500.0,u,3/06/2017,2,1.0,1.0,3093.0,10.0,-37.86506,144.97777,19956.0,1468.6,19.33,False,1412.0,6364.0,699.333,St Kilda Park Primary School,772.9,73,Yesodei HaTorah College,1038.8999999999999,38
ID586661232,50 Windella Av,KEW EAST,2125000.0,h,16/09/2017,3,2.0,2.0,741.0,102.0,-37.7955,145.05046000000004,19932.0,2517.5,26.43,False,288.0,712.0,75.667,St Anne's School,58.5,293,Kew High School,1134.6000000000001,124
ID289710694,5/106 Addison St,ELWOOD,680000.0,u,24/09/2016,2,1.0,1.0,0.0,89.0,-37.8811,144.9797,19955.0,1482.5,21.33,False,1566.667,8895.333,491.0,St Columba's School,202.4,343,Elwood College,502.2,175
ID771571154,129 Outhwaite Rd,HEIDELBERG WEST,875000.0,h,24/06/2017,2,1.0,3.0,671.0,19.0,-37.73902,145.04529,19936.0,1885.0,33.33,False,1173.667,8523.667,974.667,St Pius X School,884.1999999999999,not ranked,East Preston Islamic College,977.6,491
ID971110744,8 Hicks St,PARKDALE,1051000.0,h,12/08/2017,3,2.0,2.0,597.0,10.0,-37.98703,145.09131000000005,19864.0,1476.9,47.1,False,938.333,6892.667,553.333,Parktone Primary School,269.5,352,Parkdale Secondary College,411.7,234
ID809405876,31 Norma Rd,FOREST HILL,1131000.0,h,17/06/2017,3,1.0,2.0,697.0,131.0,-37.84188,145.16982,19899.0,2410.1,32.49,False,2006.667,7754.333,1051.333,Parkmore Primary School,683.2,not ranked,Emmaus College,758.1999999999999,142
ID276949818,49 Gowrie St,BENTLEIGH EAST,1137500.0,h,4/06/2016,4,1.0,2.0,696.0,7.0,-37.9157,145.0802,19917.0,1848.9,29.27,False,925.667,4701.333,308.667,Coatesville Primary School,755.5,271,South Oakleigh Secondary College,1117.6,not ranked
ID790366541,47 Churchill Wy,KILSYTH,710000.0,h,19/08/2017,3,1.0,2.0,837.0,59.0,-37.79682,145.30467,19877.0,1506.1,49.77,False,164.667,943.0,50.667,Ruskin Park Primary School,785.0,not ranked,Yarra Hills Secondary College,1311.1999999999998,468
ID582603402,4/110 Walpole St,KEW,700000.0,u,6/05/2017,2,1.0,1.0,0.0,49.0,-37.7977,145.0333,19931.0,2156.6,24.93,False,288.0,712.0,75.667,Kew Primary School,661.2,356,Trinity Grammar School Kew,1405.2,not ranked
ID638710024,39 Shrewsbury St,BENTLEIGH EAST,1365000.0,h,22/05/2016,4,1.0,1.0,582.0,59.0,-37.9129,145.0598,19940.0,1910.2,31.83,False,925.667,4701.333,308.667,Valkstone Primary School,299.20000000000005,134,McKinnon Secondary College,991.5,48
ID686990967,1A Brian St,BENTLEIGH EAST,1185000.0,t,10/12/2016,4,2.0,2.0,305.0,7.0,-37.9245,145.0507,19938.0,1339.3,35.69,False,925.667,4701.333,308.667,St Paul's School,832.0,211,Bentleigh Secondary College,859.9,230
ID232932425,10 Tanami Ct,BULLEEN,1401000.0,h,6/08/2016,4,2.0,2.0,617.0,69.0,-37.7582,145.0889,19935.0,2486.3,30.94,False,958.667,5673.0,628.0,St Clement of Rome School,1020.4,196,Our Lady of Mercy College,1876.0,90
ID289402412,9 Armin St,SCORESBY,950000.0,h,16/09/2017,4,2.0,2.0,758.0,44.0,-37.88863,145.23435,19869.0,5400.8,49.93,False,85.667,161.333,20.333,St Jude the Apostle School,749.6,not ranked,Scoresby Secondary College,162.5,330
ID844278567,21/70 Oshanassy St,NORTH MELBOURNE,560000.0,u,25/02/2017,2,1.0,1.0,2300.0,44.0,-37.7997,144.9472,22239.0,889.8,7.0,False,84.333,293.333,23.0,North Melbourne Primary School,320.90000000000003,182,University High School,780.5,67
ID408062951,21 Tait St,NEWPORT,950000.0,h,14/05/2016,3,2.0,2.0,281.0,69.0,-37.8431,144.8845,19994.0,89.8,16.41,False,71.0,261.0,20.0,Sacred Heart School,437.5,66,Bayside P-12 College,1626.4,243
ID281619549,76 Leopold St,SOUTH YARRA,2695000.0,h,12/11/2016,3,2.0,1.0,215.0,109.0,-37.8361,144.9831,19959.0,853.6,13.09,True,1100.667,3636.333,457.333,Christ Church Grammar School,393.2,14,Melbourne Girls Grammar,513.0,21
ID732520766,26 Calverton Rd,KEALBA,500000.0,h,22/08/2016,4,1.0,2.0,574.0,34.0,-37.7336,144.8226,20002.0,2347.7,27.36,False,555.667,1129.0,160.667,St Paul's Kealba Catholic School,261.90000000000003,386,St Albans Secondary College,1823.3,179
ID276815921,59 Glenview Rd,STRATHMORE,1205000.0,h,23/04/2016,3,1.0,2.0,650.0,19.0,-37.736,144.9202,20034.0,914.5,23.76,False,1363.667,6287.667,564.333,Strathmore Primary School,286.6,265,Strathmore Secondary College,577.0,133
ID223016938,44 Greenhills Dr,KURUNJANG,330000.0,h,22/07/2017,3,1.0,1.0,654.0,49.0,-37.67195,144.5788,19980.0,3532.6,37.38,False,121.0,242.0,42.333,Kurunjang Primary School,679.6999999999999,not ranked,Kurunjang Secondary College,639.7,506
ID275388813,27 Bevan St,BALWYN,2400000.0,h,3/12/2016,4,2.0,2.0,744.0,34.0,-37.8147,145.0748,19893.0,1227.0,23.79,False,925.667,4701.333,308.667,Fintona Girls' School,488.59999999999997,5,Fintona Girls' School,488.59999999999997,not ranked
ID680821733,13 Willonga St,STRATHMORE,1000000.0,h,25/02/2017,3,1.0,2.0,697.0,19.0,-37.7273,144.917,20034.0,1058.1,23.76,False,1412.0,6364.0,699.333,Strathmore North Primary School,285.9,145,Strathmore Secondary College,1369.2,133
ID340422844,8 Riley St,OAKLEIGH SOUTH,1000000.0,h,12/11/2016,3,2.0,2.0,575.0,59.0,-37.9215,145.0925,19916.0,1453.3,31.28,False,136.333,302.667,42.0,Oakleigh South Primary School,278.7,8,South Oakleigh Secondary College,256.7,not ranked
ID827445575,7/282 Barkly St,ELWOOD,360000.0,u,13/05/2017,1,1.0,0.0,0.0,60.0,-37.8749,144.9799,19956.0,1339.3,19.33,True,1666.0,9333.667,523.0,Yesodei HaTorah College,366.4,277,Yesodei HaTorah College,366.4,38
ID337345215,165 Spring St,RESERVOIR,762000.0,h,3/09/2017,2,1.0,1.0,556.0,69.0,-37.72422,145.00141000000005,20011.0,480.8,31.46,False,885.0,1901.0,227.667,St Gabriel's School,763.7,not ranked,Preston High School,1989.8,not ranked
